{
  "norad_id": 63328,
  "name": "STARLINK-33699",
  "history": [
    {
      "epoch": "2026-03-28T21:22:16.764384",
      "apogee_km": 484.17363065818245,
      "perigee_km": 481.919045813238,
      "latitude_deg": -42.62880331434647,
      "longitude_deg": -121.71470623998903,
      "semi_major_axis_km": 6861.18333823571,
      "eccentricity": 0.0001643,
      "inclination_deg": 42.9989,
      "raan_deg": 274.6499,
      "arg_perigee_deg": 262.0011,
      "mean_anomaly_deg": 98.0655,
      "mean_motion_rev_day": 15.27580921
    }
  ]
}